<?xml version="1.0" ?>
<gpx xmlns="http://www.topografix.com/GPX/1/1">
 <trk>
  <name>LOTM: Boston Common</name>
  <trkseg>
   <trkpt lat="42.33732" lon="-71.10327"/>
   <trkpt lat="42.33733" lon="-71.1031"/>
   <trkpt lat="42.33817" lon="-71.1025"/>
   <trkpt lat="42.3388" lon="-71.10206"/>
   <trkpt lat="42.33928" lon="-71.10172"/>
   <trkpt lat="42.33931" lon="-71.10181"/>
   <trkpt lat="42.33937" lon="-71.10176"/>
   <trkpt lat="42.33934" lon="-71.10168"/>
   <trkpt lat="42.33946" lon="-71.10159"/>
   <trkpt lat="42.33998" lon="-71.10123"/>
   <trkpt lat="42.34026" lon="-71.10103"/>
   <trkpt lat="42.34032" lon="-71.10091"/>
   <trkpt lat="42.34027" lon="-71.10083"/>
   <trkpt lat="42.34028" lon="-71.10079"/>
   <trkpt lat="42.34022" lon="-71.10071"/>
   <trkpt lat="42.34026" lon="-71.10065"/>
   <trkpt lat="42.34028" lon="-71.10065"/>
   <trkpt lat="42.34027" lon="-71.10062"/>
   <trkpt lat="42.34033" lon="-71.10057"/>
   <trkpt lat="42.34031" lon="-71.10046"/>
   <trkpt lat="42.34026" lon="-71.10027"/>
   <trkpt lat="42.34024" lon="-71.10012"/>
   <trkpt lat="42.34036" lon="-71.10003"/>
   <trkpt lat="42.34038" lon="-71.09997"/>
   <trkpt lat="42.34044" lon="-71.09985"/>
   <trkpt lat="42.34049" lon="-71.09971"/>
   <trkpt lat="42.34052" lon="-71.09932"/>
   <trkpt lat="42.34054" lon="-71.09902"/>
   <trkpt lat="42.3406" lon="-71.09869"/>
   <trkpt lat="42.34077" lon="-71.09818"/>
   <trkpt lat="42.34106" lon="-71.0978"/>
   <trkpt lat="42.34142" lon="-71.09736"/>
   <trkpt lat="42.34156" lon="-71.09718"/>
   <trkpt lat="42.34163" lon="-71.097"/>
   <trkpt lat="42.34192" lon="-71.09595"/>
   <trkpt lat="42.34204" lon="-71.0955"/>
   <trkpt lat="42.34217" lon="-71.09522"/>
   <trkpt lat="42.34245" lon="-71.09484"/>
   <trkpt lat="42.3426" lon="-71.09471"/>
   <trkpt lat="42.34277" lon="-71.09458"/>
   <trkpt lat="42.3429" lon="-71.09451"/>
   <trkpt lat="42.34299" lon="-71.0945"/>
   <trkpt lat="42.34311" lon="-71.09449"/>
   <trkpt lat="42.3432" lon="-71.09445"/>
   <trkpt lat="42.34324" lon="-71.09442"/>
   <trkpt lat="42.34345" lon="-71.09447"/>
   <trkpt lat="42.34356" lon="-71.09451"/>
   <trkpt lat="42.34388" lon="-71.09459"/>
   <trkpt lat="42.34436" lon="-71.09459"/>
   <trkpt lat="42.34478" lon="-71.0945"/>
   <trkpt lat="42.34498" lon="-71.09443"/>
   <trkpt lat="42.34535" lon="-71.09429"/>
   <trkpt lat="42.3456" lon="-71.09411"/>
   <trkpt lat="42.34614" lon="-71.09354"/>
   <trkpt lat="42.34648" lon="-71.09316"/>
   <trkpt lat="42.34655" lon="-71.09304"/>
   <trkpt lat="42.34653" lon="-71.09301"/>
   <trkpt lat="42.34653" lon="-71.09301"/>
   <trkpt lat="42.34639" lon="-71.09279"/>
   <trkpt lat="42.34653" lon="-71.09264"/>
   <trkpt lat="42.3466" lon="-71.0926"/>
   <trkpt lat="42.34665" lon="-71.09259"/>
   <trkpt lat="42.34666" lon="-71.09241"/>
   <trkpt lat="42.34664" lon="-71.09208"/>
   <trkpt lat="42.3466" lon="-71.0919"/>
   <trkpt lat="42.34653" lon="-71.0917"/>
   <trkpt lat="42.34641" lon="-71.0913"/>
   <trkpt lat="42.34637" lon="-71.09114"/>
   <trkpt lat="42.34634" lon="-71.09107"/>
   <trkpt lat="42.3463" lon="-71.091"/>
   <trkpt lat="42.34633" lon="-71.09098"/>
   <trkpt lat="42.34638" lon="-71.0909"/>
   <trkpt lat="42.34639" lon="-71.09086"/>
   <trkpt lat="42.34643" lon="-71.09065"/>
   <trkpt lat="42.34644" lon="-71.09055"/>
   <trkpt lat="42.34641" lon="-71.09045"/>
   <trkpt lat="42.34639" lon="-71.09042"/>
   <trkpt lat="42.34645" lon="-71.09036"/>
   <trkpt lat="42.34652" lon="-71.09023"/>
   <trkpt lat="42.34656" lon="-71.09012"/>
   <trkpt lat="42.34665" lon="-71.08976"/>
   <trkpt lat="42.3468" lon="-71.08929"/>
   <trkpt lat="42.34681" lon="-71.08929"/>
   <trkpt lat="42.3469" lon="-71.08934"/>
   <trkpt lat="42.34691" lon="-71.0893"/>
   <trkpt lat="42.34696" lon="-71.08933"/>
   <trkpt lat="42.347" lon="-71.08924"/>
   <trkpt lat="42.34693" lon="-71.0892"/>
   <trkpt lat="42.34694" lon="-71.08915"/>
   <trkpt lat="42.34707" lon="-71.08863"/>
   <trkpt lat="42.34728" lon="-71.08793"/>
   <trkpt lat="42.34731" lon="-71.08788"/>
   <trkpt lat="42.34738" lon="-71.08791"/>
   <trkpt lat="42.34782" lon="-71.08812"/>
   <trkpt lat="42.34809" lon="-71.08823"/>
   <trkpt lat="42.34809" lon="-71.08827"/>
   <trkpt lat="42.34816" lon="-71.08832"/>
   <trkpt lat="42.34816" lon="-71.08824"/>
   <trkpt lat="42.34818" lon="-71.08824"/>
   <trkpt lat="42.34846" lon="-71.08838"/>
   <trkpt lat="42.34881" lon="-71.08855"/>
   <trkpt lat="42.34884" lon="-71.08844"/>
   <trkpt lat="42.34889" lon="-71.08846"/>
   <trkpt lat="42.34892" lon="-71.08836"/>
   <trkpt lat="42.34892" lon="-71.08836"/>
   <trkpt lat="42.34932" lon="-71.08681"/>
   <trkpt lat="42.34951" lon="-71.08613"/>
   <trkpt lat="42.34958" lon="-71.08616"/>
   <trkpt lat="42.34959" lon="-71.08611"/>
   <trkpt lat="42.34973" lon="-71.08618"/>
   <trkpt lat="42.34985" lon="-71.08623"/>
   <trkpt lat="42.34987" lon="-71.08614"/>
   <trkpt lat="42.34976" lon="-71.08608"/>
   <trkpt lat="42.34986" lon="-71.0857"/>
   <trkpt lat="42.34989" lon="-71.08557"/>
   <trkpt lat="42.34989" lon="-71.08557"/>
   <trkpt lat="42.34998" lon="-71.08524"/>
   <trkpt lat="42.34997" lon="-71.08523"/>
   <trkpt lat="42.34997" lon="-71.0852"/>
   <trkpt lat="42.35" lon="-71.08513"/>
   <trkpt lat="42.35002" lon="-71.08512"/>
   <trkpt lat="42.35015" lon="-71.08467"/>
   <trkpt lat="42.35004" lon="-71.08461"/>
   <trkpt lat="42.35006" lon="-71.08452"/>
   <trkpt lat="42.35017" lon="-71.08458"/>
   <trkpt lat="42.35049" lon="-71.08346"/>
   <trkpt lat="42.3505" lon="-71.08345"/>
   <trkpt lat="42.35051" lon="-71.08345"/>
   <trkpt lat="42.35053" lon="-71.08343"/>
   <trkpt lat="42.35054" lon="-71.0834"/>
   <trkpt lat="42.35055" lon="-71.08334"/>
   <trkpt lat="42.35054" lon="-71.08331"/>
   <trkpt lat="42.35054" lon="-71.0833"/>
   <trkpt lat="42.35067" lon="-71.08272"/>
   <trkpt lat="42.35056" lon="-71.08266"/>
   <trkpt lat="42.35058" lon="-71.08257"/>
   <trkpt lat="42.35069" lon="-71.08262"/>
   <trkpt lat="42.35094" lon="-71.08176"/>
   <trkpt lat="42.3511" lon="-71.08119"/>
   <trkpt lat="42.3511" lon="-71.08119"/>
   <trkpt lat="42.35119" lon="-71.08091"/>
   <trkpt lat="42.35119" lon="-71.0809"/>
   <trkpt lat="42.35121" lon="-71.08089"/>
   <trkpt lat="42.35123" lon="-71.08085"/>
   <trkpt lat="42.35123" lon="-71.0808"/>
   <trkpt lat="42.35122" lon="-71.08078"/>
   <trkpt lat="42.35121" lon="-71.08077"/>
   <trkpt lat="42.3513" lon="-71.08043"/>
   <trkpt lat="42.35118" lon="-71.08037"/>
   <trkpt lat="42.35121" lon="-71.08028"/>
   <trkpt lat="42.35132" lon="-71.08033"/>
   <trkpt lat="42.35164" lon="-71.07912"/>
   <trkpt lat="42.35163" lon="-71.07912"/>
   <trkpt lat="42.35163" lon="-71.07911"/>
   <trkpt lat="42.35162" lon="-71.07909"/>
   <trkpt lat="42.35162" lon="-71.07906"/>
   <trkpt lat="42.35164" lon="-71.079"/>
   <trkpt lat="42.35166" lon="-71.07898"/>
   <trkpt lat="42.35167" lon="-71.07898"/>
   <trkpt lat="42.35168" lon="-71.07898"/>
   <trkpt lat="42.35188" lon="-71.07827"/>
   <trkpt lat="42.35177" lon="-71.07821"/>
   <trkpt lat="42.35179" lon="-71.07812"/>
   <trkpt lat="42.3519" lon="-71.07817"/>
   <trkpt lat="42.35198" lon="-71.0779"/>
   <trkpt lat="42.35199" lon="-71.0779"/>
   <trkpt lat="42.352" lon="-71.07789"/>
   <trkpt lat="42.35201" lon="-71.07788"/>
   <trkpt lat="42.35202" lon="-71.07786"/>
   <trkpt lat="42.35202" lon="-71.07778"/>
   <trkpt lat="42.35202" lon="-71.07777"/>
   <trkpt lat="42.35206" lon="-71.07759"/>
   <trkpt lat="42.35222" lon="-71.077"/>
   <trkpt lat="42.35219" lon="-71.07697"/>
   <trkpt lat="42.35218" lon="-71.0769"/>
   <trkpt lat="42.35218" lon="-71.07683"/>
   <trkpt lat="42.35222" lon="-71.07678"/>
   <trkpt lat="42.35227" lon="-71.07677"/>
   <trkpt lat="42.35244" lon="-71.07612"/>
   <trkpt lat="42.35234" lon="-71.07607"/>
   <trkpt lat="42.35236" lon="-71.07598"/>
   <trkpt lat="42.35247" lon="-71.07603"/>
   <trkpt lat="42.35266" lon="-71.0753"/>
   <trkpt lat="42.35266" lon="-71.0753"/>
   <trkpt lat="42.35279" lon="-71.07478"/>
   <trkpt lat="42.35278" lon="-71.07477"/>
   <trkpt lat="42.35278" lon="-71.07474"/>
   <trkpt lat="42.3528" lon="-71.07469"/>
   <trkpt lat="42.35282" lon="-71.07469"/>
   <trkpt lat="42.3529" lon="-71.07444"/>
   <trkpt lat="42.35303" lon="-71.07398"/>
   <trkpt lat="42.35292" lon="-71.07392"/>
   <trkpt lat="42.35294" lon="-71.07383"/>
   <trkpt lat="42.35306" lon="-71.07388"/>
   <trkpt lat="42.3531" lon="-71.07373"/>
   <trkpt lat="42.35335" lon="-71.07279"/>
   <trkpt lat="42.35366" lon="-71.07164"/>
   <trkpt lat="42.35355" lon="-71.07158"/>
   <trkpt lat="42.35359" lon="-71.07147"/>
   <trkpt lat="42.35369" lon="-71.07153"/>
   <trkpt lat="42.35372" lon="-71.07142"/>
   <trkpt lat="42.35372" lon="-71.07142"/>
   <trkpt lat="42.35374" lon="-71.07136"/>
   <trkpt lat="42.35382" lon="-71.07135"/>
   <trkpt lat="42.35382" lon="-71.07136"/>
   <trkpt lat="42.35383" lon="-71.07137"/>
   <trkpt lat="42.35383" lon="-71.07139"/>
   <trkpt lat="42.35386" lon="-71.07142"/>
   <trkpt lat="42.35392" lon="-71.07141"/>
   <trkpt lat="42.35394" lon="-71.07138"/>
   <trkpt lat="42.35398" lon="-71.07138"/>
   <trkpt lat="42.35409" lon="-71.0714"/>
   <trkpt lat="42.35421" lon="-71.07133"/>
   <trkpt lat="42.35432" lon="-71.07124"/>
   <trkpt lat="42.35434" lon="-71.07116"/>
   <trkpt lat="42.35439" lon="-71.07114"/>
   <trkpt lat="42.35443" lon="-71.07114"/>
   <trkpt lat="42.35451" lon="-71.07121"/>
   <trkpt lat="42.35452" lon="-71.07123"/>
   <trkpt lat="42.35459" lon="-71.07119"/>
   <trkpt lat="42.3547" lon="-71.07112"/>
   <trkpt lat="42.35494" lon="-71.07089"/>
   <trkpt lat="42.35504" lon="-71.07077"/>
   <trkpt lat="42.35514" lon="-71.0706"/>
   <trkpt lat="42.3552" lon="-71.07038"/>
   <trkpt lat="42.35523" lon="-71.07027"/>
   <trkpt lat="42.35529" lon="-71.07014"/>
   <trkpt lat="42.35538" lon="-71.06996"/>
   <trkpt lat="42.35554" lon="-71.06978"/>
   <trkpt lat="42.35569" lon="-71.06969"/>
   <trkpt lat="42.35577" lon="-71.06964"/>
   <trkpt lat="42.3558" lon="-71.0696"/>
   <trkpt lat="42.3559" lon="-71.06958"/>
   <trkpt lat="42.35596" lon="-71.06955"/>
   <trkpt lat="42.35596" lon="-71.06955"/>
   <trkpt lat="42.356" lon="-71.06954"/>
   <trkpt lat="42.35607" lon="-71.06934"/>
   <trkpt lat="42.35615" lon="-71.06933"/>
   <trkpt lat="42.35631" lon="-71.06933"/>
   <trkpt lat="42.35611" lon="-71.06917"/>
   <trkpt lat="42.35609" lon="-71.06914"/>
   <trkpt lat="42.35605" lon="-71.06904"/>
   <trkpt lat="42.35609" lon="-71.06897"/>
   <trkpt lat="42.35613" lon="-71.06882"/>
   <trkpt lat="42.35621" lon="-71.0685"/>
   <trkpt lat="42.35639" lon="-71.06766"/>
   <trkpt lat="42.35661" lon="-71.06668"/>
   <trkpt lat="42.35661" lon="-71.06668"/>
   <trkpt lat="42.35691" lon="-71.06529"/>
   <trkpt lat="42.35697" lon="-71.06502"/>
   <trkpt lat="42.35694" lon="-71.06478"/>
   <trkpt lat="42.35677" lon="-71.06408"/>
   <trkpt lat="42.35677" lon="-71.06408"/>
   <trkpt lat="42.35672" lon="-71.06389"/>
   <trkpt lat="42.35651" lon="-71.06398"/>
   <trkpt lat="42.356" lon="-71.06418"/>
   <trkpt lat="42.35542" lon="-71.06365"/>
   <trkpt lat="42.35538" lon="-71.0637"/>
   <trkpt lat="42.35538" lon="-71.0637"/>
   <trkpt lat="42.35532" lon="-71.06372"/>
   <trkpt lat="42.35522" lon="-71.0637"/>
   <trkpt lat="42.35519" lon="-71.06369"/>
   <trkpt lat="42.35515" lon="-71.06375"/>
   <trkpt lat="42.35507" lon="-71.06385"/>
   <trkpt lat="42.35481" lon="-71.06416"/>
   <trkpt lat="42.35436" lon="-71.06471"/>
   <trkpt lat="42.35363" lon="-71.06558"/>
   <trkpt lat="42.35352" lon="-71.06574"/>
   <trkpt lat="42.35348" lon="-71.06584"/>
   <trkpt lat="42.35344" lon="-71.06595"/>
   <trkpt lat="42.3534" lon="-71.06604"/>
   <trkpt lat="42.3534" lon="-71.06604"/>
   <trkpt lat="42.35288" lon="-71.06728"/>
   <trkpt lat="42.35283" lon="-71.06752"/>
   <trkpt lat="42.35284" lon="-71.06752"/>
   <trkpt lat="42.35283" lon="-71.06765"/>
   <trkpt lat="42.3528" lon="-71.06763"/>
   <trkpt lat="42.35272" lon="-71.06767"/>
   <trkpt lat="42.35275" lon="-71.06788"/>
   <trkpt lat="42.35276" lon="-71.06795"/>
   <trkpt lat="42.35276" lon="-71.06795"/>
   <trkpt lat="42.35268" lon="-71.0682"/>
   <trkpt lat="42.35254" lon="-71.06891"/>
   <trkpt lat="42.35248" lon="-71.06926"/>
   <trkpt lat="42.35253" lon="-71.06928"/>
   <trkpt lat="42.35253" lon="-71.06936"/>
   <trkpt lat="42.35262" lon="-71.06966"/>
   <trkpt lat="42.35271" lon="-71.06984"/>
   <trkpt lat="42.35273" lon="-71.06999"/>
   <trkpt lat="42.35274" lon="-71.07015"/>
   <trkpt lat="42.35276" lon="-71.07026"/>
   <trkpt lat="42.35288" lon="-71.07034"/>
   <trkpt lat="42.353" lon="-71.0704"/>
   <trkpt lat="42.35302" lon="-71.07048"/>
   <trkpt lat="42.35301" lon="-71.07053"/>
   <trkpt lat="42.35331" lon="-71.07067"/>
   <trkpt lat="42.35332" lon="-71.07074"/>
   <trkpt lat="42.35335" lon="-71.07079"/>
   <trkpt lat="42.35343" lon="-71.07084"/>
   <trkpt lat="42.35347" lon="-71.07084"/>
   <trkpt lat="42.35348" lon="-71.071"/>
   <trkpt lat="42.35348" lon="-71.07107"/>
   <trkpt lat="42.35353" lon="-71.07115"/>
   <trkpt lat="42.35353" lon="-71.07115"/>
   <trkpt lat="42.35356" lon="-71.07121"/>
   <trkpt lat="42.35356" lon="-71.07123"/>
   <trkpt lat="42.35358" lon="-71.07127"/>
   <trkpt lat="42.35363" lon="-71.0713"/>
   <trkpt lat="42.35366" lon="-71.07129"/>
   <trkpt lat="42.35367" lon="-71.07128"/>
   <trkpt lat="42.35374" lon="-71.07136"/>
   <trkpt lat="42.35369" lon="-71.07153"/>
   <trkpt lat="42.35359" lon="-71.07147"/>
   <trkpt lat="42.35355" lon="-71.07158"/>
   <trkpt lat="42.35366" lon="-71.07164"/>
   <trkpt lat="42.35335" lon="-71.07279"/>
   <trkpt lat="42.35314" lon="-71.07359"/>
   <trkpt lat="42.35314" lon="-71.07359"/>
   <trkpt lat="42.35306" lon="-71.07388"/>
   <trkpt lat="42.35316" lon="-71.07394"/>
   <trkpt lat="42.35314" lon="-71.07403"/>
   <trkpt lat="42.35303" lon="-71.07398"/>
   <trkpt lat="42.35297" lon="-71.07419"/>
   <trkpt lat="42.35283" lon="-71.07469"/>
   <trkpt lat="42.35282" lon="-71.07469"/>
   <trkpt lat="42.35281" lon="-71.07469"/>
   <trkpt lat="42.3528" lon="-71.07469"/>
   <trkpt lat="42.35279" lon="-71.0747"/>
   <trkpt lat="42.35278" lon="-71.07472"/>
   <trkpt lat="42.35278" lon="-71.07475"/>
   <trkpt lat="42.35279" lon="-71.07478"/>
   <trkpt lat="42.3528" lon="-71.07478"/>
   <trkpt lat="42.35254" lon="-71.07576"/>
   <trkpt lat="42.35254" lon="-71.07576"/>
   <trkpt lat="42.35247" lon="-71.07603"/>
   <trkpt lat="42.35236" lon="-71.07598"/>
   <trkpt lat="42.35234" lon="-71.07607"/>
   <trkpt lat="42.35244" lon="-71.07612"/>
   <trkpt lat="42.35238" lon="-71.07638"/>
   <trkpt lat="42.35238" lon="-71.07638"/>
   <trkpt lat="42.35227" lon="-71.07677"/>
   <trkpt lat="42.35222" lon="-71.07678"/>
   <trkpt lat="42.35218" lon="-71.07683"/>
   <trkpt lat="42.35218" lon="-71.0769"/>
   <trkpt lat="42.35219" lon="-71.07697"/>
   <trkpt lat="42.35222" lon="-71.077"/>
   <trkpt lat="42.35206" lon="-71.07759"/>
   <trkpt lat="42.35202" lon="-71.07777"/>
   <trkpt lat="42.35202" lon="-71.07778"/>
   <trkpt lat="42.35203" lon="-71.07779"/>
   <trkpt lat="42.35203" lon="-71.0778"/>
   <trkpt lat="42.35203" lon="-71.07782"/>
   <trkpt lat="42.35202" lon="-71.07786"/>
   <trkpt lat="42.352" lon="-71.07789"/>
   <trkpt lat="42.35198" lon="-71.0779"/>
   <trkpt lat="42.3519" lon="-71.07817"/>
   <trkpt lat="42.35201" lon="-71.07823"/>
   <trkpt lat="42.35198" lon="-71.07832"/>
   <trkpt lat="42.35188" lon="-71.07827"/>
   <trkpt lat="42.35168" lon="-71.07898"/>
   <trkpt lat="42.35167" lon="-71.07898"/>
   <trkpt lat="42.35166" lon="-71.07898"/>
   <trkpt lat="42.35165" lon="-71.07899"/>
   <trkpt lat="42.35164" lon="-71.079"/>
   <trkpt lat="42.35163" lon="-71.07903"/>
   <trkpt lat="42.35163" lon="-71.0791"/>
   <trkpt lat="42.35163" lon="-71.07911"/>
   <trkpt lat="42.35156" lon="-71.07941"/>
   <trkpt lat="42.35156" lon="-71.07941"/>
   <trkpt lat="42.35132" lon="-71.08033"/>
   <trkpt lat="42.35143" lon="-71.08039"/>
   <trkpt lat="42.3514" lon="-71.08048"/>
   <trkpt lat="42.3513" lon="-71.08043"/>
   <trkpt lat="42.35121" lon="-71.08078"/>
   <trkpt lat="42.35122" lon="-71.08078"/>
   <trkpt lat="42.35122" lon="-71.08079"/>
   <trkpt lat="42.35123" lon="-71.0808"/>
   <trkpt lat="42.35123" lon="-71.08081"/>
   <trkpt lat="42.35124" lon="-71.08083"/>
   <trkpt lat="42.35123" lon="-71.08086"/>
   <trkpt lat="42.35121" lon="-71.0809"/>
   <trkpt lat="42.35119" lon="-71.08091"/>
   <trkpt lat="42.35118" lon="-71.08091"/>
   <trkpt lat="42.35117" lon="-71.08091"/>
   <trkpt lat="42.35069" lon="-71.08262"/>
   <trkpt lat="42.3508" lon="-71.08268"/>
   <trkpt lat="42.35078" lon="-71.08277"/>
   <trkpt lat="42.35067" lon="-71.08272"/>
   <trkpt lat="42.35053" lon="-71.08329"/>
   <trkpt lat="42.35054" lon="-71.0833"/>
   <trkpt lat="42.35055" lon="-71.08332"/>
   <trkpt lat="42.35055" lon="-71.08335"/>
   <trkpt lat="42.35054" lon="-71.08341"/>
   <trkpt lat="42.35051" lon="-71.08345"/>
   <trkpt lat="42.35048" lon="-71.08346"/>
   <trkpt lat="42.35026" lon="-71.08426"/>
   <trkpt lat="42.35026" lon="-71.08426"/>
   <trkpt lat="42.35017" lon="-71.08458"/>
   <trkpt lat="42.35028" lon="-71.08463"/>
   <trkpt lat="42.35025" lon="-71.08472"/>
   <trkpt lat="42.35015" lon="-71.08467"/>
   <trkpt lat="42.35003" lon="-71.08513"/>
   <trkpt lat="42.35003" lon="-71.08514"/>
   <trkpt lat="42.35004" lon="-71.08514"/>
   <trkpt lat="42.35004" lon="-71.08516"/>
   <trkpt lat="42.35004" lon="-71.08517"/>
   <trkpt lat="42.35003" lon="-71.08521"/>
   <trkpt lat="42.35002" lon="-71.08524"/>
   <trkpt lat="42.35" lon="-71.08525"/>
   <trkpt lat="42.34997" lon="-71.08532"/>
   <trkpt lat="42.34997" lon="-71.08532"/>
   <trkpt lat="42.34976" lon="-71.08608"/>
   <trkpt lat="42.34987" lon="-71.08614"/>
   <trkpt lat="42.34985" lon="-71.08623"/>
   <trkpt lat="42.34959" lon="-71.08611"/>
   <trkpt lat="42.34958" lon="-71.08616"/>
   <trkpt lat="42.34951" lon="-71.08613"/>
   <trkpt lat="42.34924" lon="-71.08709"/>
   <trkpt lat="42.34903" lon="-71.08787"/>
   <trkpt lat="42.34889" lon="-71.08846"/>
   <trkpt lat="42.34884" lon="-71.08844"/>
   <trkpt lat="42.34881" lon="-71.08855"/>
   <trkpt lat="42.34846" lon="-71.08838"/>
   <trkpt lat="42.34818" lon="-71.08824"/>
   <trkpt lat="42.34816" lon="-71.08824"/>
   <trkpt lat="42.34816" lon="-71.08832"/>
   <trkpt lat="42.34809" lon="-71.08827"/>
   <trkpt lat="42.34809" lon="-71.08823"/>
   <trkpt lat="42.34801" lon="-71.08821"/>
   <trkpt lat="42.34738" lon="-71.08791"/>
   <trkpt lat="42.34731" lon="-71.08788"/>
   <trkpt lat="42.34728" lon="-71.08793"/>
   <trkpt lat="42.34707" lon="-71.08863"/>
   <trkpt lat="42.34694" lon="-71.08914"/>
   <trkpt lat="42.34688" lon="-71.08909"/>
   <trkpt lat="42.34682" lon="-71.08909"/>
   <trkpt lat="42.34679" lon="-71.08919"/>
   <trkpt lat="42.34684" lon="-71.08918"/>
   <trkpt lat="42.34686" lon="-71.08918"/>
   <trkpt lat="42.34686" lon="-71.08922"/>
   <trkpt lat="42.34684" lon="-71.08929"/>
   <trkpt lat="42.34682" lon="-71.08929"/>
   <trkpt lat="42.34681" lon="-71.08929"/>
   <trkpt lat="42.3468" lon="-71.08929"/>
   <trkpt lat="42.34665" lon="-71.08976"/>
   <trkpt lat="42.34652" lon="-71.09023"/>
   <trkpt lat="42.34645" lon="-71.09036"/>
   <trkpt lat="42.34639" lon="-71.09042"/>
   <trkpt lat="42.34641" lon="-71.09045"/>
   <trkpt lat="42.34644" lon="-71.09053"/>
   <trkpt lat="42.34644" lon="-71.09059"/>
   <trkpt lat="42.34642" lon="-71.09071"/>
   <trkpt lat="42.34638" lon="-71.0909"/>
   <trkpt lat="42.34633" lon="-71.09098"/>
   <trkpt lat="42.3463" lon="-71.091"/>
   <trkpt lat="42.3462" lon="-71.09108"/>
   <trkpt lat="42.34618" lon="-71.09108"/>
   <trkpt lat="42.34603" lon="-71.09102"/>
   <trkpt lat="42.34581" lon="-71.09096"/>
   <trkpt lat="42.34572" lon="-71.09092"/>
   <trkpt lat="42.34559" lon="-71.09092"/>
   <trkpt lat="42.34539" lon="-71.09096"/>
   <trkpt lat="42.34513" lon="-71.09109"/>
   <trkpt lat="42.34487" lon="-71.09115"/>
   <trkpt lat="42.3448" lon="-71.09118"/>
   <trkpt lat="42.34454" lon="-71.09142"/>
   <trkpt lat="42.34427" lon="-71.09155"/>
   <trkpt lat="42.34406" lon="-71.09163"/>
   <trkpt lat="42.34376" lon="-71.09181"/>
   <trkpt lat="42.34366" lon="-71.09182"/>
   <trkpt lat="42.34334" lon="-71.09188"/>
   <trkpt lat="42.34305" lon="-71.09191"/>
   <trkpt lat="42.34279" lon="-71.09189"/>
   <trkpt lat="42.34259" lon="-71.09185"/>
   <trkpt lat="42.34244" lon="-71.09184"/>
   <trkpt lat="42.34221" lon="-71.09195"/>
   <trkpt lat="42.34212" lon="-71.092"/>
   <trkpt lat="42.34195" lon="-71.0922"/>
   <trkpt lat="42.34178" lon="-71.09236"/>
   <trkpt lat="42.34172" lon="-71.09241"/>
   <trkpt lat="42.34162" lon="-71.09245"/>
   <trkpt lat="42.34148" lon="-71.09263"/>
   <trkpt lat="42.34127" lon="-71.09317"/>
   <trkpt lat="42.3412" lon="-71.09335"/>
   <trkpt lat="42.34116" lon="-71.09341"/>
   <trkpt lat="42.34102" lon="-71.09388"/>
   <trkpt lat="42.34084" lon="-71.09429"/>
   <trkpt lat="42.34069" lon="-71.09474"/>
   <trkpt lat="42.34057" lon="-71.09519"/>
   <trkpt lat="42.3405" lon="-71.0954"/>
   <trkpt lat="42.34025" lon="-71.09596"/>
   <trkpt lat="42.34014" lon="-71.09618"/>
   <trkpt lat="42.33994" lon="-71.09645"/>
   <trkpt lat="42.33979" lon="-71.09662"/>
   <trkpt lat="42.33965" lon="-71.09675"/>
   <trkpt lat="42.33945" lon="-71.09691"/>
   <trkpt lat="42.33929" lon="-71.09704"/>
   <trkpt lat="42.33908" lon="-71.09728"/>
   <trkpt lat="42.33896" lon="-71.0975"/>
   <trkpt lat="42.33891" lon="-71.09768"/>
   <trkpt lat="42.33889" lon="-71.09777"/>
   <trkpt lat="42.33881" lon="-71.09779"/>
   <trkpt lat="42.33881" lon="-71.09783"/>
   <trkpt lat="42.33884" lon="-71.09806"/>
   <trkpt lat="42.33888" lon="-71.09822"/>
   <trkpt lat="42.33918" lon="-71.09888"/>
   <trkpt lat="42.33924" lon="-71.09901"/>
   <trkpt lat="42.33924" lon="-71.09901"/>
   <trkpt lat="42.3395" lon="-71.09944"/>
   <trkpt lat="42.3396" lon="-71.09961"/>
   <trkpt lat="42.33956" lon="-71.09966"/>
   <trkpt lat="42.3395" lon="-71.09972"/>
   <trkpt lat="42.33956" lon="-71.09981"/>
   <trkpt lat="42.3397" lon="-71.09999"/>
   <trkpt lat="42.33978" lon="-71.10014"/>
   <trkpt lat="42.33993" lon="-71.10034"/>
   <trkpt lat="42.34028" lon="-71.10079"/>
   <trkpt lat="42.34027" lon="-71.10083"/>
   <trkpt lat="42.34032" lon="-71.10091"/>
   <trkpt lat="42.34029" lon="-71.10098"/>
   <trkpt lat="42.3402" lon="-71.10107"/>
   <trkpt lat="42.33946" lon="-71.10159"/>
   <trkpt lat="42.33934" lon="-71.10168"/>
   <trkpt lat="42.33937" lon="-71.10176"/>
   <trkpt lat="42.33931" lon="-71.10181"/>
   <trkpt lat="42.33928" lon="-71.10172"/>
   <trkpt lat="42.3388" lon="-71.10206"/>
   <trkpt lat="42.33851" lon="-71.10227"/>
   <trkpt lat="42.33773" lon="-71.10282"/>
   <trkpt lat="42.33733" lon="-71.1031"/>
   <trkpt lat="42.33733" lon="-71.10322"/>
   <trkpt lat="42.33732" lon="-71.10327"/>
  </trkseg>
 </trk>
</gpx>
