<?xml version="1.0" ?>
<gpx xmlns="http://www.topografix.com/GPX/1/1">
 <trk>
  <name>LOTM Brookline Reservoir 5mi</name>
  <trkseg>
   <trkpt lat="42.337283" lon="-71.103261"/>
   <trkpt lat="42.337269" lon="-71.103288"/>
   <trkpt lat="42.33721" lon="-71.103338"/>
   <trkpt lat="42.337178" lon="-71.103359"/>
   <trkpt lat="42.337118" lon="-71.103397"/>
   <trkpt lat="42.337051" lon="-71.103223"/>
   <trkpt lat="42.336983" lon="-71.103056"/>
   <trkpt lat="42.336936" lon="-71.102938"/>
   <trkpt lat="42.336823" lon="-71.102645"/>
   <trkpt lat="42.336719" lon="-71.102373"/>
   <trkpt lat="42.336608" lon="-71.102085"/>
   <trkpt lat="42.336434" lon="-71.101632"/>
   <trkpt lat="42.336185" lon="-71.100983"/>
   <trkpt lat="42.336173" lon="-71.10095"/>
   <trkpt lat="42.336154" lon="-71.100902"/>
   <trkpt lat="42.335986" lon="-71.100465"/>
   <trkpt lat="42.335969" lon="-71.100419"/>
   <trkpt lat="42.335934" lon="-71.100327"/>
   <trkpt lat="42.335887" lon="-71.100425"/>
   <trkpt lat="42.335887" lon="-71.100425"/>
   <trkpt lat="42.33585" lon="-71.100504"/>
   <trkpt lat="42.335775" lon="-71.100685"/>
   <trkpt lat="42.335662" lon="-71.100989"/>
   <trkpt lat="42.335545" lon="-71.101331"/>
   <trkpt lat="42.335531" lon="-71.101366"/>
   <trkpt lat="42.335401" lon="-71.101749"/>
   <trkpt lat="42.335175" lon="-71.102414"/>
   <trkpt lat="42.335024" lon="-71.102867"/>
   <trkpt lat="42.335008" lon="-71.10291"/>
   <trkpt lat="42.334973" lon="-71.103008"/>
   <trkpt lat="42.334938" lon="-71.103101"/>
   <trkpt lat="42.334837" lon="-71.103372"/>
   <trkpt lat="42.334795" lon="-71.103484"/>
   <trkpt lat="42.334725" lon="-71.103664"/>
   <trkpt lat="42.334674" lon="-71.103793"/>
   <trkpt lat="42.334651" lon="-71.10385"/>
   <trkpt lat="42.334559" lon="-71.104064"/>
   <trkpt lat="42.334391" lon="-71.104472"/>
   <trkpt lat="42.334371" lon="-71.104524"/>
   <trkpt lat="42.334299" lon="-71.104698"/>
   <trkpt lat="42.334286" lon="-71.104726"/>
   <trkpt lat="42.334226" lon="-71.10485"/>
   <trkpt lat="42.334172" lon="-71.104962"/>
   <trkpt lat="42.334083" lon="-71.105151"/>
   <trkpt lat="42.333995" lon="-71.105323"/>
   <trkpt lat="42.333911" lon="-71.105466"/>
   <trkpt lat="42.333835" lon="-71.105544"/>
   <trkpt lat="42.333776" lon="-71.105619"/>
   <trkpt lat="42.3337" lon="-71.10576"/>
   <trkpt lat="42.333509" lon="-71.10611"/>
   <trkpt lat="42.333478" lon="-71.106168"/>
   <trkpt lat="42.333451" lon="-71.106223"/>
   <trkpt lat="42.333423" lon="-71.106285"/>
   <trkpt lat="42.333397" lon="-71.106346"/>
   <trkpt lat="42.333373" lon="-71.106407"/>
   <trkpt lat="42.333352" lon="-71.106465"/>
   <trkpt lat="42.333333" lon="-71.10653"/>
   <trkpt lat="42.333315" lon="-71.1066"/>
   <trkpt lat="42.333299" lon="-71.106669"/>
   <trkpt lat="42.333285" lon="-71.106736"/>
   <trkpt lat="42.333275" lon="-71.106801"/>
   <trkpt lat="42.333267" lon="-71.106872"/>
   <trkpt lat="42.333261" lon="-71.106942"/>
   <trkpt lat="42.333259" lon="-71.107004"/>
   <trkpt lat="42.333256" lon="-71.107074"/>
   <trkpt lat="42.333256" lon="-71.107167"/>
   <trkpt lat="42.333258" lon="-71.107904"/>
   <trkpt lat="42.333263" lon="-71.108424"/>
   <trkpt lat="42.333262" lon="-71.108496"/>
   <trkpt lat="42.333261" lon="-71.108568"/>
   <trkpt lat="42.33326" lon="-71.108637"/>
   <trkpt lat="42.333258" lon="-71.108704"/>
   <trkpt lat="42.333254" lon="-71.108778"/>
   <trkpt lat="42.33325" lon="-71.108846"/>
   <trkpt lat="42.333234" lon="-71.109072"/>
   <trkpt lat="42.333221" lon="-71.109226"/>
   <trkpt lat="42.333217" lon="-71.109273"/>
   <trkpt lat="42.333213" lon="-71.109324"/>
   <trkpt lat="42.333191" lon="-71.109587"/>
   <trkpt lat="42.333187" lon="-71.109659"/>
   <trkpt lat="42.333185" lon="-71.109688"/>
   <trkpt lat="42.333178" lon="-71.109775"/>
   <trkpt lat="42.333166" lon="-71.109842"/>
   <trkpt lat="42.333151" lon="-71.109915"/>
   <trkpt lat="42.333134" lon="-71.109982"/>
   <trkpt lat="42.333117" lon="-71.110043"/>
   <trkpt lat="42.333097" lon="-71.110106"/>
   <trkpt lat="42.333073" lon="-71.110169"/>
   <trkpt lat="42.333048" lon="-71.11023"/>
   <trkpt lat="42.333023" lon="-71.11029"/>
   <trkpt lat="42.332997" lon="-71.110347"/>
   <trkpt lat="42.332968" lon="-71.110404"/>
   <trkpt lat="42.332938" lon="-71.110468"/>
   <trkpt lat="42.332892" lon="-71.11056"/>
   <trkpt lat="42.33284" lon="-71.110662"/>
   <trkpt lat="42.332796" lon="-71.110748"/>
   <trkpt lat="42.332768" lon="-71.1108"/>
   <trkpt lat="42.332729" lon="-71.110875"/>
   <trkpt lat="42.332699" lon="-71.11093"/>
   <trkpt lat="42.332666" lon="-71.110987"/>
   <trkpt lat="42.332634" lon="-71.111044"/>
   <trkpt lat="42.332589" lon="-71.111117"/>
   <trkpt lat="42.332547" lon="-71.111182"/>
   <trkpt lat="42.332509" lon="-71.111243"/>
   <trkpt lat="42.33247" lon="-71.111303"/>
   <trkpt lat="42.332429" lon="-71.111366"/>
   <trkpt lat="42.332249" lon="-71.11163"/>
   <trkpt lat="42.332215" lon="-71.111683"/>
   <trkpt lat="42.332152" lon="-71.111784"/>
   <trkpt lat="42.332113" lon="-71.111855"/>
   <trkpt lat="42.33211" lon="-71.111896"/>
   <trkpt lat="42.332098" lon="-71.111981"/>
   <trkpt lat="42.332079" lon="-71.112061"/>
   <trkpt lat="42.332053" lon="-71.112149"/>
   <trkpt lat="42.332027" lon="-71.112239"/>
   <trkpt lat="42.332064" lon="-71.112258"/>
   <trkpt lat="42.332073" lon="-71.112263"/>
   <trkpt lat="42.332073" lon="-71.112263"/>
   <trkpt lat="42.332064" lon="-71.112258"/>
   <trkpt lat="42.332027" lon="-71.112239"/>
   <trkpt lat="42.332009" lon="-71.112319"/>
   <trkpt lat="42.331987" lon="-71.112432"/>
   <trkpt lat="42.331976" lon="-71.112507"/>
   <trkpt lat="42.331969" lon="-71.112583"/>
   <trkpt lat="42.331962" lon="-71.1127"/>
   <trkpt lat="42.331954" lon="-71.112825"/>
   <trkpt lat="42.331947" lon="-71.11295"/>
   <trkpt lat="42.331942" lon="-71.113056"/>
   <trkpt lat="42.33194" lon="-71.113102"/>
   <trkpt lat="42.331935" lon="-71.113189"/>
   <trkpt lat="42.331931" lon="-71.113251"/>
   <trkpt lat="42.331926" lon="-71.113319"/>
   <trkpt lat="42.331924" lon="-71.113332"/>
   <trkpt lat="42.331911" lon="-71.113437"/>
   <trkpt lat="42.331895" lon="-71.113527"/>
   <trkpt lat="42.331889" lon="-71.113563"/>
   <trkpt lat="42.331884" lon="-71.1136"/>
   <trkpt lat="42.331879" lon="-71.113634"/>
   <trkpt lat="42.331874" lon="-71.113668"/>
   <trkpt lat="42.331869" lon="-71.113711"/>
   <trkpt lat="42.331864" lon="-71.113757"/>
   <trkpt lat="42.33186" lon="-71.113799"/>
   <trkpt lat="42.331856" lon="-71.113847"/>
   <trkpt lat="42.331853" lon="-71.113897"/>
   <trkpt lat="42.331849" lon="-71.113974"/>
   <trkpt lat="42.331845" lon="-71.114128"/>
   <trkpt lat="42.331845" lon="-71.114219"/>
   <trkpt lat="42.331846" lon="-71.114288"/>
   <trkpt lat="42.331847" lon="-71.114355"/>
   <trkpt lat="42.33185" lon="-71.114398"/>
   <trkpt lat="42.331854" lon="-71.114475"/>
   <trkpt lat="42.331859" lon="-71.114539"/>
   <trkpt lat="42.331866" lon="-71.114628"/>
   <trkpt lat="42.331853" lon="-71.114636"/>
   <trkpt lat="42.331844" lon="-71.114642"/>
   <trkpt lat="42.331834" lon="-71.114649"/>
   <trkpt lat="42.33182" lon="-71.114663"/>
   <trkpt lat="42.331803" lon="-71.114682"/>
   <trkpt lat="42.331744" lon="-71.114751"/>
   <trkpt lat="42.331744" lon="-71.1148"/>
   <trkpt lat="42.331744" lon="-71.114852"/>
   <trkpt lat="42.331744" lon="-71.114935"/>
   <trkpt lat="42.331744" lon="-71.114977"/>
   <trkpt lat="42.331745" lon="-71.115452"/>
   <trkpt lat="42.331744" lon="-71.115603"/>
   <trkpt lat="42.331743" lon="-71.115713"/>
   <trkpt lat="42.331742" lon="-71.115782"/>
   <trkpt lat="42.331741" lon="-71.115854"/>
   <trkpt lat="42.331739" lon="-71.115918"/>
   <trkpt lat="42.331731" lon="-71.116036"/>
   <trkpt lat="42.331721" lon="-71.116204"/>
   <trkpt lat="42.331707" lon="-71.116429"/>
   <trkpt lat="42.331703" lon="-71.116471"/>
   <trkpt lat="42.331646" lon="-71.117051"/>
   <trkpt lat="42.331637" lon="-71.117123"/>
   <trkpt lat="42.331629" lon="-71.117186"/>
   <trkpt lat="42.331614" lon="-71.117282"/>
   <trkpt lat="42.331597" lon="-71.117393"/>
   <trkpt lat="42.331588" lon="-71.117449"/>
   <trkpt lat="42.331562" lon="-71.117614"/>
   <trkpt lat="42.331545" lon="-71.117721"/>
   <trkpt lat="42.331632" lon="-71.117708"/>
   <trkpt lat="42.331618" lon="-71.117784"/>
   <trkpt lat="42.331618" lon="-71.117784"/>
   <trkpt lat="42.331595" lon="-71.117913"/>
   <trkpt lat="42.331005" lon="-71.121186"/>
   <trkpt lat="42.33096" lon="-71.121429"/>
   <trkpt lat="42.330902" lon="-71.121718"/>
   <trkpt lat="42.330811" lon="-71.122163"/>
   <trkpt lat="42.330779" lon="-71.12232"/>
   <trkpt lat="42.330693" lon="-71.122749"/>
   <trkpt lat="42.330631" lon="-71.12307"/>
   <trkpt lat="42.330559" lon="-71.123449"/>
   <trkpt lat="42.330515" lon="-71.123686"/>
   <trkpt lat="42.33048" lon="-71.12387"/>
   <trkpt lat="42.330389" lon="-71.124389"/>
   <trkpt lat="42.33022" lon="-71.12529"/>
   <trkpt lat="42.330197" lon="-71.125437"/>
   <trkpt lat="42.330154" lon="-71.12572"/>
   <trkpt lat="42.330129" lon="-71.125879"/>
   <trkpt lat="42.330123" lon="-71.125923"/>
   <trkpt lat="42.3301" lon="-71.12607"/>
   <trkpt lat="42.330064" lon="-71.126286"/>
   <trkpt lat="42.330002" lon="-71.12666"/>
   <trkpt lat="42.329988" lon="-71.126751"/>
   <trkpt lat="42.329946" lon="-71.126983"/>
   <trkpt lat="42.329881" lon="-71.127302"/>
   <trkpt lat="42.329787" lon="-71.127795"/>
   <trkpt lat="42.329697" lon="-71.128317"/>
   <trkpt lat="42.329647" lon="-71.128613"/>
   <trkpt lat="42.329538" lon="-71.129303"/>
   <trkpt lat="42.329493" lon="-71.12957"/>
   <trkpt lat="42.32943" lon="-71.12997"/>
   <trkpt lat="42.329332" lon="-71.130555"/>
   <trkpt lat="42.329277" lon="-71.130858"/>
   <trkpt lat="42.329221" lon="-71.131185"/>
   <trkpt lat="42.329172" lon="-71.131448"/>
   <trkpt lat="42.32911" lon="-71.13178"/>
   <trkpt lat="42.329025" lon="-71.132194"/>
   <trkpt lat="42.32901" lon="-71.132265"/>
   <trkpt lat="42.32899" lon="-71.13236"/>
   <trkpt lat="42.328921" lon="-71.13272"/>
   <trkpt lat="42.328912" lon="-71.13278"/>
   <trkpt lat="42.328994" lon="-71.132805"/>
   <trkpt lat="42.328979" lon="-71.13292"/>
   <trkpt lat="42.328979" lon="-71.13292"/>
   <trkpt lat="42.328894" lon="-71.132894"/>
   <trkpt lat="42.328767" lon="-71.132859"/>
   <trkpt lat="42.328752" lon="-71.132957"/>
   <trkpt lat="42.328688" lon="-71.132922"/>
   <trkpt lat="42.328682" lon="-71.132919"/>
   <trkpt lat="42.32867" lon="-71.132921"/>
   <trkpt lat="42.328674" lon="-71.132931"/>
   <trkpt lat="42.328621" lon="-71.132972"/>
   <trkpt lat="42.328621" lon="-71.132972"/>
   <trkpt lat="42.328674" lon="-71.132931"/>
   <trkpt lat="42.32867" lon="-71.132921"/>
   <trkpt lat="42.328667" lon="-71.132917"/>
   <trkpt lat="42.32866" lon="-71.132912"/>
   <trkpt lat="42.328629" lon="-71.132894"/>
   <trkpt lat="42.32862" lon="-71.132892"/>
   <trkpt lat="42.328609" lon="-71.132892"/>
   <trkpt lat="42.328596" lon="-71.132891"/>
   <trkpt lat="42.328589" lon="-71.13289"/>
   <trkpt lat="42.328586" lon="-71.132888"/>
   <trkpt lat="42.328451" lon="-71.132803"/>
   <trkpt lat="42.328437" lon="-71.132844"/>
   <trkpt lat="42.328419" lon="-71.132873"/>
   <trkpt lat="42.328401" lon="-71.132892"/>
   <trkpt lat="42.328384" lon="-71.132903"/>
   <trkpt lat="42.328363" lon="-71.132909"/>
   <trkpt lat="42.328352" lon="-71.132909"/>
   <trkpt lat="42.328342" lon="-71.132906"/>
   <trkpt lat="42.328318" lon="-71.132893"/>
   <trkpt lat="42.328298" lon="-71.132879"/>
   <trkpt lat="42.328267" lon="-71.132865"/>
   <trkpt lat="42.328242" lon="-71.13286"/>
   <trkpt lat="42.328216" lon="-71.132859"/>
   <trkpt lat="42.328193" lon="-71.132864"/>
   <trkpt lat="42.328165" lon="-71.132874"/>
   <trkpt lat="42.328139" lon="-71.132895"/>
   <trkpt lat="42.328111" lon="-71.132934"/>
   <trkpt lat="42.32809" lon="-71.132978"/>
   <trkpt lat="42.328123" lon="-71.132987"/>
   <trkpt lat="42.328148" lon="-71.132995"/>
   <trkpt lat="42.328202" lon="-71.133022"/>
   <trkpt lat="42.328249" lon="-71.133052"/>
   <trkpt lat="42.328289" lon="-71.133089"/>
   <trkpt lat="42.328328" lon="-71.133156"/>
   <trkpt lat="42.32835" lon="-71.133218"/>
   <trkpt lat="42.32838" lon="-71.133314"/>
   <trkpt lat="42.328402" lon="-71.133392"/>
   <trkpt lat="42.328424" lon="-71.13351"/>
   <trkpt lat="42.328428" lon="-71.133615"/>
   <trkpt lat="42.328431" lon="-71.133746"/>
   <trkpt lat="42.328431" lon="-71.13387"/>
   <trkpt lat="42.32843" lon="-71.133942"/>
   <trkpt lat="42.328422" lon="-71.134006"/>
   <trkpt lat="42.328406" lon="-71.134135"/>
   <trkpt lat="42.328386" lon="-71.134283"/>
   <trkpt lat="42.32837" lon="-71.134425"/>
   <trkpt lat="42.32835" lon="-71.134597"/>
   <trkpt lat="42.328325" lon="-71.134766"/>
   <trkpt lat="42.328303" lon="-71.1349"/>
   <trkpt lat="42.328281" lon="-71.135039"/>
   <trkpt lat="42.328253" lon="-71.135187"/>
   <trkpt lat="42.328217" lon="-71.135321"/>
   <trkpt lat="42.32816" lon="-71.135506"/>
   <trkpt lat="42.328106" lon="-71.135653"/>
   <trkpt lat="42.328057" lon="-71.135784"/>
   <trkpt lat="42.328012" lon="-71.1359"/>
   <trkpt lat="42.327952" lon="-71.136048"/>
   <trkpt lat="42.327862" lon="-71.136268"/>
   <trkpt lat="42.327783" lon="-71.136469"/>
   <trkpt lat="42.327694" lon="-71.136686"/>
   <trkpt lat="42.32762" lon="-71.136874"/>
   <trkpt lat="42.327587" lon="-71.13696"/>
   <trkpt lat="42.327537" lon="-71.137048"/>
   <trkpt lat="42.327494" lon="-71.137126"/>
   <trkpt lat="42.327438" lon="-71.137204"/>
   <trkpt lat="42.327393" lon="-71.137271"/>
   <trkpt lat="42.327325" lon="-71.137351"/>
   <trkpt lat="42.327273" lon="-71.137429"/>
   <trkpt lat="42.327224" lon="-71.137493"/>
   <trkpt lat="42.327182" lon="-71.137571"/>
   <trkpt lat="42.327141" lon="-71.137649"/>
   <trkpt lat="42.327101" lon="-71.137748"/>
   <trkpt lat="42.327075" lon="-71.137813"/>
   <trkpt lat="42.327057" lon="-71.137885"/>
   <trkpt lat="42.327035" lon="-71.137965"/>
   <trkpt lat="42.327018" lon="-71.138043"/>
   <trkpt lat="42.327002" lon="-71.13811"/>
   <trkpt lat="42.326992" lon="-71.138185"/>
   <trkpt lat="42.326984" lon="-71.138349"/>
   <trkpt lat="42.326976" lon="-71.138451"/>
   <trkpt lat="42.326976" lon="-71.138558"/>
   <trkpt lat="42.326968" lon="-71.138652"/>
   <trkpt lat="42.326954" lon="-71.138792"/>
   <trkpt lat="42.326944" lon="-71.138899"/>
   <trkpt lat="42.326921" lon="-71.139041"/>
   <trkpt lat="42.326895" lon="-71.139156"/>
   <trkpt lat="42.326869" lon="-71.139245"/>
   <trkpt lat="42.326843" lon="-71.139317"/>
   <trkpt lat="42.326806" lon="-71.139398"/>
   <trkpt lat="42.326754" lon="-71.139481"/>
   <trkpt lat="42.326696" lon="-71.139559"/>
   <trkpt lat="42.326629" lon="-71.139626"/>
   <trkpt lat="42.326558" lon="-71.139674"/>
   <trkpt lat="42.32649" lon="-71.139714"/>
   <trkpt lat="42.326413" lon="-71.139744"/>
   <trkpt lat="42.32636" lon="-71.139762"/>
   <trkpt lat="42.32636" lon="-71.139762"/>
   <trkpt lat="42.326334" lon="-71.139771"/>
   <trkpt lat="42.326254" lon="-71.139784"/>
   <trkpt lat="42.326238" lon="-71.139787"/>
   <trkpt lat="42.326171" lon="-71.139795"/>
   <trkpt lat="42.326092" lon="-71.139789"/>
   <trkpt lat="42.326006" lon="-71.139768"/>
   <trkpt lat="42.325907" lon="-71.13973"/>
   <trkpt lat="42.325822" lon="-71.13969"/>
   <trkpt lat="42.325751" lon="-71.139645"/>
   <trkpt lat="42.325717" lon="-71.139623"/>
   <trkpt lat="42.325641" lon="-71.139564"/>
   <trkpt lat="42.325558" lon="-71.139473"/>
   <trkpt lat="42.325487" lon="-71.13939"/>
   <trkpt lat="42.325419" lon="-71.139285"/>
   <trkpt lat="42.32535" lon="-71.13917"/>
   <trkpt lat="42.325304" lon="-71.139079"/>
   <trkpt lat="42.325277" lon="-71.138998"/>
   <trkpt lat="42.325245" lon="-71.138869"/>
   <trkpt lat="42.32523" lon="-71.138801"/>
   <trkpt lat="42.325225" lon="-71.138768"/>
   <trkpt lat="42.32522" lon="-71.138732"/>
   <trkpt lat="42.325216" lon="-71.138688"/>
   <trkpt lat="42.325213" lon="-71.138632"/>
   <trkpt lat="42.325217" lon="-71.138501"/>
   <trkpt lat="42.325226" lon="-71.138404"/>
   <trkpt lat="42.325253" lon="-71.138265"/>
   <trkpt lat="42.325296" lon="-71.138183"/>
   <trkpt lat="42.325354" lon="-71.138081"/>
   <trkpt lat="42.325413" lon="-71.137979"/>
   <trkpt lat="42.325511" lon="-71.137847"/>
   <trkpt lat="42.325638" lon="-71.137705"/>
   <trkpt lat="42.325735" lon="-71.137603"/>
   <trkpt lat="42.325816" lon="-71.137491"/>
   <trkpt lat="42.325887" lon="-71.137386"/>
   <trkpt lat="42.325945" lon="-71.137281"/>
   <trkpt lat="42.325968" lon="-71.137228"/>
   <trkpt lat="42.32599" lon="-71.137177"/>
   <trkpt lat="42.326046" lon="-71.137045"/>
   <trkpt lat="42.326096" lon="-71.136844"/>
   <trkpt lat="42.326151" lon="-71.136565"/>
   <trkpt lat="42.326203" lon="-71.13631"/>
   <trkpt lat="42.32626" lon="-71.136048"/>
   <trkpt lat="42.326322" lon="-71.135769"/>
   <trkpt lat="42.326355" lon="-71.135605"/>
   <trkpt lat="42.326407" lon="-71.135444"/>
   <trkpt lat="42.326457" lon="-71.135321"/>
   <trkpt lat="42.32651" lon="-71.135205"/>
   <trkpt lat="42.326562" lon="-71.13509"/>
   <trkpt lat="42.326595" lon="-71.134977"/>
   <trkpt lat="42.326607" lon="-71.134894"/>
   <trkpt lat="42.326609" lon="-71.134808"/>
   <trkpt lat="42.326609" lon="-71.134731"/>
   <trkpt lat="42.326597" lon="-71.134664"/>
   <trkpt lat="42.326567" lon="-71.134591"/>
   <trkpt lat="42.326506" lon="-71.134487"/>
   <trkpt lat="42.326433" lon="-71.134385"/>
   <trkpt lat="42.326381" lon="-71.134272"/>
   <trkpt lat="42.326357" lon="-71.134192"/>
   <trkpt lat="42.326353" lon="-71.134137"/>
   <trkpt lat="42.326349" lon="-71.134082"/>
   <trkpt lat="42.326353" lon="-71.133993"/>
   <trkpt lat="42.326381" lon="-71.133894"/>
   <trkpt lat="42.326431" lon="-71.133803"/>
   <trkpt lat="42.32651" lon="-71.133701"/>
   <trkpt lat="42.326573" lon="-71.133623"/>
   <trkpt lat="42.326657" lon="-71.133545"/>
   <trkpt lat="42.32676" lon="-71.13347"/>
   <trkpt lat="42.326831" lon="-71.133425"/>
   <trkpt lat="42.326831" lon="-71.133425"/>
   <trkpt lat="42.326849" lon="-71.133414"/>
   <trkpt lat="42.326956" lon="-71.133376"/>
   <trkpt lat="42.327053" lon="-71.133344"/>
   <trkpt lat="42.327141" lon="-71.133312"/>
   <trkpt lat="42.327246" lon="-71.133285"/>
   <trkpt lat="42.327349" lon="-71.133258"/>
   <trkpt lat="42.327466" lon="-71.133223"/>
   <trkpt lat="42.327577" lon="-71.133178"/>
   <trkpt lat="42.327686" lon="-71.133137"/>
   <trkpt lat="42.327793" lon="-71.133086"/>
   <trkpt lat="42.327908" lon="-71.133035"/>
   <trkpt lat="42.327985" lon="-71.133006"/>
   <trkpt lat="42.328044" lon="-71.132985"/>
   <trkpt lat="42.32809" lon="-71.132978"/>
   <trkpt lat="42.328111" lon="-71.132934"/>
   <trkpt lat="42.328139" lon="-71.132895"/>
   <trkpt lat="42.328165" lon="-71.132874"/>
   <trkpt lat="42.328193" lon="-71.132864"/>
   <trkpt lat="42.328216" lon="-71.132859"/>
   <trkpt lat="42.328242" lon="-71.13286"/>
   <trkpt lat="42.328267" lon="-71.132865"/>
   <trkpt lat="42.328298" lon="-71.132879"/>
   <trkpt lat="42.328318" lon="-71.132893"/>
   <trkpt lat="42.328342" lon="-71.132906"/>
   <trkpt lat="42.328352" lon="-71.132909"/>
   <trkpt lat="42.328363" lon="-71.132909"/>
   <trkpt lat="42.328384" lon="-71.132903"/>
   <trkpt lat="42.328401" lon="-71.132892"/>
   <trkpt lat="42.328419" lon="-71.132873"/>
   <trkpt lat="42.328437" lon="-71.132844"/>
   <trkpt lat="42.328451" lon="-71.132803"/>
   <trkpt lat="42.32848" lon="-71.132725"/>
   <trkpt lat="42.328577" lon="-71.132782"/>
   <trkpt lat="42.328664" lon="-71.132827"/>
   <trkpt lat="42.32869" lon="-71.13284"/>
   <trkpt lat="42.328767" lon="-71.132859"/>
   <trkpt lat="42.328894" lon="-71.132894"/>
   <trkpt lat="42.328912" lon="-71.13278"/>
   <trkpt lat="42.328921" lon="-71.13272"/>
   <trkpt lat="42.32899" lon="-71.13236"/>
   <trkpt lat="42.32901" lon="-71.132265"/>
   <trkpt lat="42.329025" lon="-71.132194"/>
   <trkpt lat="42.32911" lon="-71.13178"/>
   <trkpt lat="42.329172" lon="-71.131448"/>
   <trkpt lat="42.329221" lon="-71.131185"/>
   <trkpt lat="42.329277" lon="-71.130858"/>
   <trkpt lat="42.329332" lon="-71.130555"/>
   <trkpt lat="42.32943" lon="-71.12997"/>
   <trkpt lat="42.329493" lon="-71.12957"/>
   <trkpt lat="42.329538" lon="-71.129303"/>
   <trkpt lat="42.329647" lon="-71.128613"/>
   <trkpt lat="42.329697" lon="-71.128317"/>
   <trkpt lat="42.329787" lon="-71.127795"/>
   <trkpt lat="42.329881" lon="-71.127302"/>
   <trkpt lat="42.329946" lon="-71.126983"/>
   <trkpt lat="42.329988" lon="-71.126751"/>
   <trkpt lat="42.330002" lon="-71.12666"/>
   <trkpt lat="42.330064" lon="-71.126286"/>
   <trkpt lat="42.3301" lon="-71.12607"/>
   <trkpt lat="42.330123" lon="-71.125923"/>
   <trkpt lat="42.330129" lon="-71.125879"/>
   <trkpt lat="42.330139" lon="-71.125814"/>
   <trkpt lat="42.330139" lon="-71.125814"/>
   <trkpt lat="42.330154" lon="-71.12572"/>
   <trkpt lat="42.330197" lon="-71.125437"/>
   <trkpt lat="42.33022" lon="-71.12529"/>
   <trkpt lat="42.330389" lon="-71.124389"/>
   <trkpt lat="42.33048" lon="-71.12387"/>
   <trkpt lat="42.330515" lon="-71.123686"/>
   <trkpt lat="42.330559" lon="-71.123449"/>
   <trkpt lat="42.330631" lon="-71.12307"/>
   <trkpt lat="42.330693" lon="-71.122749"/>
   <trkpt lat="42.330779" lon="-71.12232"/>
   <trkpt lat="42.330811" lon="-71.122163"/>
   <trkpt lat="42.330902" lon="-71.121718"/>
   <trkpt lat="42.33096" lon="-71.121429"/>
   <trkpt lat="42.331005" lon="-71.121186"/>
   <trkpt lat="42.331595" lon="-71.117913"/>
   <trkpt lat="42.331632" lon="-71.117708"/>
   <trkpt lat="42.331545" lon="-71.117721"/>
   <trkpt lat="42.331562" lon="-71.117614"/>
   <trkpt lat="42.331588" lon="-71.117449"/>
   <trkpt lat="42.331597" lon="-71.117393"/>
   <trkpt lat="42.331614" lon="-71.117282"/>
   <trkpt lat="42.331629" lon="-71.117186"/>
   <trkpt lat="42.331637" lon="-71.117123"/>
   <trkpt lat="42.331646" lon="-71.117051"/>
   <trkpt lat="42.331703" lon="-71.116471"/>
   <trkpt lat="42.331707" lon="-71.116429"/>
   <trkpt lat="42.331721" lon="-71.116204"/>
   <trkpt lat="42.331731" lon="-71.116036"/>
   <trkpt lat="42.331739" lon="-71.115918"/>
   <trkpt lat="42.331741" lon="-71.115854"/>
   <trkpt lat="42.331742" lon="-71.115782"/>
   <trkpt lat="42.331743" lon="-71.115713"/>
   <trkpt lat="42.331744" lon="-71.115603"/>
   <trkpt lat="42.331745" lon="-71.115452"/>
   <trkpt lat="42.331744" lon="-71.114977"/>
   <trkpt lat="42.331744" lon="-71.114935"/>
   <trkpt lat="42.331744" lon="-71.114852"/>
   <trkpt lat="42.331744" lon="-71.1148"/>
   <trkpt lat="42.331744" lon="-71.114751"/>
   <trkpt lat="42.331743" lon="-71.114604"/>
   <trkpt lat="42.331743" lon="-71.114415"/>
   <trkpt lat="42.331746" lon="-71.114212"/>
   <trkpt lat="42.331749" lon="-71.114117"/>
   <trkpt lat="42.331751" lon="-71.114038"/>
   <trkpt lat="42.33176" lon="-71.113851"/>
   <trkpt lat="42.331778" lon="-71.113627"/>
   <trkpt lat="42.331785" lon="-71.113536"/>
   <trkpt lat="42.331796" lon="-71.113408"/>
   <trkpt lat="42.331813" lon="-71.113235"/>
   <trkpt lat="42.331817" lon="-71.113181"/>
   <trkpt lat="42.331819" lon="-71.113144"/>
   <trkpt lat="42.331822" lon="-71.113096"/>
   <trkpt lat="42.331837" lon="-71.112855"/>
   <trkpt lat="42.331844" lon="-71.112732"/>
   <trkpt lat="42.331851" lon="-71.112648"/>
   <trkpt lat="42.331851" lon="-71.112648"/>
   <trkpt lat="42.331853" lon="-71.112631"/>
   <trkpt lat="42.331864" lon="-71.112528"/>
   <trkpt lat="42.331878" lon="-71.112429"/>
   <trkpt lat="42.331898" lon="-71.112301"/>
   <trkpt lat="42.33191" lon="-71.112238"/>
   <trkpt lat="42.331922" lon="-71.112186"/>
   <trkpt lat="42.331929" lon="-71.11216"/>
   <trkpt lat="42.331954" lon="-71.112079"/>
   <trkpt lat="42.331976" lon="-71.112031"/>
   <trkpt lat="42.332001" lon="-71.111994"/>
   <trkpt lat="42.332038" lon="-71.111947"/>
   <trkpt lat="42.332113" lon="-71.111855"/>
   <trkpt lat="42.332152" lon="-71.111784"/>
   <trkpt lat="42.332215" lon="-71.111683"/>
   <trkpt lat="42.332249" lon="-71.11163"/>
   <trkpt lat="42.332429" lon="-71.111366"/>
   <trkpt lat="42.33247" lon="-71.111303"/>
   <trkpt lat="42.332509" lon="-71.111243"/>
   <trkpt lat="42.332547" lon="-71.111182"/>
   <trkpt lat="42.332589" lon="-71.111117"/>
   <trkpt lat="42.332634" lon="-71.111044"/>
   <trkpt lat="42.332666" lon="-71.110987"/>
   <trkpt lat="42.332699" lon="-71.11093"/>
   <trkpt lat="42.332729" lon="-71.110875"/>
   <trkpt lat="42.332768" lon="-71.1108"/>
   <trkpt lat="42.332796" lon="-71.110748"/>
   <trkpt lat="42.33284" lon="-71.110662"/>
   <trkpt lat="42.332892" lon="-71.11056"/>
   <trkpt lat="42.332938" lon="-71.110468"/>
   <trkpt lat="42.332968" lon="-71.110404"/>
   <trkpt lat="42.332997" lon="-71.110347"/>
   <trkpt lat="42.333023" lon="-71.11029"/>
   <trkpt lat="42.333048" lon="-71.11023"/>
   <trkpt lat="42.333073" lon="-71.110169"/>
   <trkpt lat="42.333097" lon="-71.110106"/>
   <trkpt lat="42.333117" lon="-71.110043"/>
   <trkpt lat="42.333134" lon="-71.109982"/>
   <trkpt lat="42.333151" lon="-71.109915"/>
   <trkpt lat="42.333166" lon="-71.109842"/>
   <trkpt lat="42.333178" lon="-71.109775"/>
   <trkpt lat="42.333185" lon="-71.109688"/>
   <trkpt lat="42.333187" lon="-71.109659"/>
   <trkpt lat="42.333191" lon="-71.109587"/>
   <trkpt lat="42.333213" lon="-71.109324"/>
   <trkpt lat="42.333217" lon="-71.109273"/>
   <trkpt lat="42.333221" lon="-71.109226"/>
   <trkpt lat="42.333234" lon="-71.109072"/>
   <trkpt lat="42.33325" lon="-71.108846"/>
   <trkpt lat="42.333254" lon="-71.108778"/>
   <trkpt lat="42.333258" lon="-71.108704"/>
   <trkpt lat="42.33326" lon="-71.108637"/>
   <trkpt lat="42.333261" lon="-71.108568"/>
   <trkpt lat="42.333262" lon="-71.108496"/>
   <trkpt lat="42.333263" lon="-71.108424"/>
   <trkpt lat="42.333258" lon="-71.107904"/>
   <trkpt lat="42.333256" lon="-71.107167"/>
   <trkpt lat="42.333256" lon="-71.107074"/>
   <trkpt lat="42.333259" lon="-71.107004"/>
   <trkpt lat="42.333261" lon="-71.106942"/>
   <trkpt lat="42.333267" lon="-71.106872"/>
   <trkpt lat="42.333275" lon="-71.106801"/>
   <trkpt lat="42.333285" lon="-71.106736"/>
   <trkpt lat="42.333299" lon="-71.106669"/>
   <trkpt lat="42.333315" lon="-71.1066"/>
   <trkpt lat="42.333333" lon="-71.10653"/>
   <trkpt lat="42.333352" lon="-71.106465"/>
   <trkpt lat="42.333373" lon="-71.106407"/>
   <trkpt lat="42.333397" lon="-71.106346"/>
   <trkpt lat="42.333423" lon="-71.106285"/>
   <trkpt lat="42.333451" lon="-71.106223"/>
   <trkpt lat="42.333478" lon="-71.106168"/>
   <trkpt lat="42.333509" lon="-71.10611"/>
   <trkpt lat="42.3337" lon="-71.10576"/>
   <trkpt lat="42.333776" lon="-71.105619"/>
   <trkpt lat="42.333835" lon="-71.105544"/>
   <trkpt lat="42.333911" lon="-71.105466"/>
   <trkpt lat="42.333995" lon="-71.105323"/>
   <trkpt lat="42.334083" lon="-71.105151"/>
   <trkpt lat="42.334172" lon="-71.104962"/>
   <trkpt lat="42.334226" lon="-71.10485"/>
   <trkpt lat="42.334286" lon="-71.104726"/>
   <trkpt lat="42.334299" lon="-71.104698"/>
   <trkpt lat="42.334371" lon="-71.104524"/>
   <trkpt lat="42.334391" lon="-71.104472"/>
   <trkpt lat="42.334559" lon="-71.104064"/>
   <trkpt lat="42.334651" lon="-71.10385"/>
   <trkpt lat="42.334674" lon="-71.103793"/>
   <trkpt lat="42.334725" lon="-71.103664"/>
   <trkpt lat="42.334795" lon="-71.103484"/>
   <trkpt lat="42.334837" lon="-71.103372"/>
   <trkpt lat="42.334938" lon="-71.103101"/>
   <trkpt lat="42.334973" lon="-71.103008"/>
   <trkpt lat="42.335008" lon="-71.10291"/>
   <trkpt lat="42.335054" lon="-71.102946"/>
   <trkpt lat="42.335056" lon="-71.102939"/>
   <trkpt lat="42.335125" lon="-71.102732"/>
   <trkpt lat="42.335408" lon="-71.101873"/>
   <trkpt lat="42.335578" lon="-71.101394"/>
   <trkpt lat="42.335613" lon="-71.101365"/>
   <trkpt lat="42.335626" lon="-71.101296"/>
   <trkpt lat="42.335637" lon="-71.10124"/>
   <trkpt lat="42.335629" lon="-71.101213"/>
   <trkpt lat="42.335816" lon="-71.100738"/>
   <trkpt lat="42.335816" lon="-71.100738"/>
   <trkpt lat="42.335872" lon="-71.100594"/>
   <trkpt lat="42.335895" lon="-71.100536"/>
   <trkpt lat="42.335903" lon="-71.100522"/>
   <trkpt lat="42.335907" lon="-71.100518"/>
   <trkpt lat="42.335914" lon="-71.100514"/>
   <trkpt lat="42.335919" lon="-71.100514"/>
   <trkpt lat="42.335921" lon="-71.100514"/>
   <trkpt lat="42.335924" lon="-71.100513"/>
   <trkpt lat="42.335929" lon="-71.100515"/>
   <trkpt lat="42.335934" lon="-71.100518"/>
   <trkpt lat="42.335939" lon="-71.100523"/>
   <trkpt lat="42.335942" lon="-71.100528"/>
   <trkpt lat="42.335945" lon="-71.100534"/>
   <trkpt lat="42.336111" lon="-71.100967"/>
   <trkpt lat="42.336173" lon="-71.10095"/>
   <trkpt lat="42.336185" lon="-71.100983"/>
   <trkpt lat="42.336434" lon="-71.101632"/>
   <trkpt lat="42.336608" lon="-71.102085"/>
   <trkpt lat="42.336719" lon="-71.102373"/>
   <trkpt lat="42.336823" lon="-71.102645"/>
   <trkpt lat="42.336936" lon="-71.102938"/>
   <trkpt lat="42.336983" lon="-71.103056"/>
   <trkpt lat="42.337051" lon="-71.103223"/>
   <trkpt lat="42.337118" lon="-71.103397"/>
   <trkpt lat="42.337178" lon="-71.103359"/>
   <trkpt lat="42.33721" lon="-71.103338"/>
   <trkpt lat="42.337224" lon="-71.103326"/>
  </trkseg>
 </trk>
</gpx>
