<?xml version="1.0" ?>
<gpx xmlns="http://www.topografix.com/GPX/1/1">
 <trk>
  <name>LOTM: F for Fenway!</name>
  <trkseg>
   <trkpt lat="42.33725" lon="-71.10343"/>
   <trkpt lat="42.33717" lon="-71.10349"/>
   <trkpt lat="42.33729" lon="-71.10336"/>
   <trkpt lat="42.33732" lon="-71.10332"/>
   <trkpt lat="42.33735" lon="-71.1032"/>
   <trkpt lat="42.33767" lon="-71.10297"/>
   <trkpt lat="42.33778" lon="-71.10292"/>
   <trkpt lat="42.338" lon="-71.10276"/>
   <trkpt lat="42.33878" lon="-71.10221"/>
   <trkpt lat="42.3393" lon="-71.10184"/>
   <trkpt lat="42.33929" lon="-71.10182"/>
   <trkpt lat="42.33933" lon="-71.1018"/>
   <trkpt lat="42.33939" lon="-71.10175"/>
   <trkpt lat="42.3394" lon="-71.10178"/>
   <trkpt lat="42.33951" lon="-71.10171"/>
   <trkpt lat="42.33983" lon="-71.10148"/>
   <trkpt lat="42.33995" lon="-71.10135"/>
   <trkpt lat="42.34019" lon="-71.10118"/>
   <trkpt lat="42.34033" lon="-71.10102"/>
   <trkpt lat="42.34033" lon="-71.10101"/>
   <trkpt lat="42.34033" lon="-71.10101"/>
   <trkpt lat="42.34035" lon="-71.10096"/>
   <trkpt lat="42.34027" lon="-71.10085"/>
   <trkpt lat="42.34022" lon="-71.10079"/>
   <trkpt lat="42.34023" lon="-71.10074"/>
   <trkpt lat="42.34022" lon="-71.10071"/>
   <trkpt lat="42.34026" lon="-71.10064"/>
   <trkpt lat="42.34031" lon="-71.1007"/>
   <trkpt lat="42.34031" lon="-71.10068"/>
   <trkpt lat="42.3403" lon="-71.10062"/>
   <trkpt lat="42.34032" lon="-71.10058"/>
   <trkpt lat="42.34035" lon="-71.10054"/>
   <trkpt lat="42.34044" lon="-71.10052"/>
   <trkpt lat="42.34043" lon="-71.10037"/>
   <trkpt lat="42.34044" lon="-71.10025"/>
   <trkpt lat="42.34051" lon="-71.1"/>
   <trkpt lat="42.34056" lon="-71.09994"/>
   <trkpt lat="42.3406" lon="-71.09993"/>
   <trkpt lat="42.34071" lon="-71.09991"/>
   <trkpt lat="42.34077" lon="-71.09992"/>
   <trkpt lat="42.34082" lon="-71.09999"/>
   <trkpt lat="42.34084" lon="-71.10003"/>
   <trkpt lat="42.34084" lon="-71.10003"/>
   <trkpt lat="42.34102" lon="-71.10035"/>
   <trkpt lat="42.34133" lon="-71.10072"/>
   <trkpt lat="42.34208" lon="-71.10151"/>
   <trkpt lat="42.34241" lon="-71.10184"/>
   <trkpt lat="42.34254" lon="-71.10191"/>
   <trkpt lat="42.34255" lon="-71.10198"/>
   <trkpt lat="42.34267" lon="-71.1021"/>
   <trkpt lat="42.34277" lon="-71.10218"/>
   <trkpt lat="42.34287" lon="-71.10229"/>
   <trkpt lat="42.34311" lon="-71.10253"/>
   <trkpt lat="42.3432" lon="-71.10236"/>
   <trkpt lat="42.34323" lon="-71.10239"/>
   <trkpt lat="42.34325" lon="-71.10241"/>
   <trkpt lat="42.34326" lon="-71.10234"/>
   <trkpt lat="42.34328" lon="-71.10233"/>
   <trkpt lat="42.34346" lon="-71.10232"/>
   <trkpt lat="42.34344" lon="-71.10242"/>
   <trkpt lat="42.34347" lon="-71.10239"/>
   <trkpt lat="42.34347" lon="-71.10239"/>
   <trkpt lat="42.34357" lon="-71.10224"/>
   <trkpt lat="42.34365" lon="-71.10215"/>
   <trkpt lat="42.34379" lon="-71.10205"/>
   <trkpt lat="42.34389" lon="-71.10195"/>
   <trkpt lat="42.34413" lon="-71.1017"/>
   <trkpt lat="42.34442" lon="-71.10137"/>
   <trkpt lat="42.3445" lon="-71.10123"/>
   <trkpt lat="42.34479" lon="-71.10094"/>
   <trkpt lat="42.34472" lon="-71.10079"/>
   <trkpt lat="42.3447" lon="-71.10068"/>
   <trkpt lat="42.34464" lon="-71.10053"/>
   <trkpt lat="42.34463" lon="-71.10051"/>
   <trkpt lat="42.34473" lon="-71.10034"/>
   <trkpt lat="42.34475" lon="-71.10032"/>
   <trkpt lat="42.34478" lon="-71.10028"/>
   <trkpt lat="42.34482" lon="-71.10012"/>
   <trkpt lat="42.34482" lon="-71.10012"/>
   <trkpt lat="42.34487" lon="-71.09998"/>
   <trkpt lat="42.34504" lon="-71.09928"/>
   <trkpt lat="42.34506" lon="-71.09924"/>
   <trkpt lat="42.34509" lon="-71.09909"/>
   <trkpt lat="42.34511" lon="-71.0991"/>
   <trkpt lat="42.3452" lon="-71.0988"/>
   <trkpt lat="42.34533" lon="-71.0983"/>
   <trkpt lat="42.34538" lon="-71.09814"/>
   <trkpt lat="42.34583" lon="-71.09649"/>
   <trkpt lat="42.34583" lon="-71.09649"/>
   <trkpt lat="42.34588" lon="-71.09623"/>
   <trkpt lat="42.34597" lon="-71.09588"/>
   <trkpt lat="42.34598" lon="-71.09574"/>
   <trkpt lat="42.34585" lon="-71.09575"/>
   <trkpt lat="42.34567" lon="-71.09569"/>
   <trkpt lat="42.34547" lon="-71.09555"/>
   <trkpt lat="42.3453" lon="-71.09553"/>
   <trkpt lat="42.3453" lon="-71.09555"/>
   <trkpt lat="42.34512" lon="-71.09545"/>
   <trkpt lat="42.34512" lon="-71.09546"/>
   <trkpt lat="42.34512" lon="-71.09546"/>
   <trkpt lat="42.34503" lon="-71.09579"/>
   <trkpt lat="42.34493" lon="-71.0961"/>
   <trkpt lat="42.34471" lon="-71.09687"/>
   <trkpt lat="42.34461" lon="-71.09728"/>
   <trkpt lat="42.34457" lon="-71.09748"/>
   <trkpt lat="42.34449" lon="-71.09771"/>
   <trkpt lat="42.3444" lon="-71.09808"/>
   <trkpt lat="42.34432" lon="-71.09834"/>
   <trkpt lat="42.34423" lon="-71.09869"/>
   <trkpt lat="42.34422" lon="-71.09888"/>
   <trkpt lat="42.3442" lon="-71.09897"/>
   <trkpt lat="42.34414" lon="-71.09918"/>
   <trkpt lat="42.34408" lon="-71.09939"/>
   <trkpt lat="42.34396" lon="-71.09978"/>
   <trkpt lat="42.34392" lon="-71.09993"/>
   <trkpt lat="42.34389" lon="-71.09991"/>
   <trkpt lat="42.34387" lon="-71.10004"/>
   <trkpt lat="42.34375" lon="-71.10048"/>
   <trkpt lat="42.34341" lon="-71.10172"/>
   <trkpt lat="42.34341" lon="-71.10172"/>
   <trkpt lat="42.34338" lon="-71.10183"/>
   <trkpt lat="42.34334" lon="-71.10179"/>
   <trkpt lat="42.34321" lon="-71.10168"/>
   <trkpt lat="42.34291" lon="-71.10142"/>
   <trkpt lat="42.34272" lon="-71.10122"/>
   <trkpt lat="42.3426" lon="-71.10118"/>
   <trkpt lat="42.34271" lon="-71.10079"/>
   <trkpt lat="42.34276" lon="-71.10066"/>
   <trkpt lat="42.34305" lon="-71.0996"/>
   <trkpt lat="42.34308" lon="-71.09948"/>
   <trkpt lat="42.34335" lon="-71.09845"/>
   <trkpt lat="42.34337" lon="-71.09836"/>
   <trkpt lat="42.3436" lon="-71.0975"/>
   <trkpt lat="42.34365" lon="-71.09744"/>
   <trkpt lat="42.34364" lon="-71.09741"/>
   <trkpt lat="42.34366" lon="-71.09732"/>
   <trkpt lat="42.34368" lon="-71.09732"/>
   <trkpt lat="42.34379" lon="-71.09688"/>
   <trkpt lat="42.34382" lon="-71.09678"/>
   <trkpt lat="42.3441" lon="-71.09575"/>
   <trkpt lat="42.34425" lon="-71.09523"/>
   <trkpt lat="42.34424" lon="-71.09523"/>
   <trkpt lat="42.34424" lon="-71.09526"/>
   <trkpt lat="42.34411" lon="-71.0952"/>
   <trkpt lat="42.34385" lon="-71.09508"/>
   <trkpt lat="42.34349" lon="-71.09491"/>
   <trkpt lat="42.34339" lon="-71.09488"/>
   <trkpt lat="42.34322" lon="-71.09545"/>
   <trkpt lat="42.34282" lon="-71.09693"/>
   <trkpt lat="42.34275" lon="-71.0972"/>
   <trkpt lat="42.34238" lon="-71.09862"/>
   <trkpt lat="42.34225" lon="-71.09909"/>
   <trkpt lat="42.34223" lon="-71.09912"/>
   <trkpt lat="42.34219" lon="-71.09926"/>
   <trkpt lat="42.34219" lon="-71.09926"/>
   <trkpt lat="42.3422" lon="-71.09923"/>
   <trkpt lat="42.34214" lon="-71.0992"/>
   <trkpt lat="42.34183" lon="-71.09904"/>
   <trkpt lat="42.34135" lon="-71.09881"/>
   <trkpt lat="42.34097" lon="-71.09862"/>
   <trkpt lat="42.3408" lon="-71.09848"/>
   <trkpt lat="42.34069" lon="-71.09839"/>
   <trkpt lat="42.34077" lon="-71.09818"/>
   <trkpt lat="42.34106" lon="-71.0978"/>
   <trkpt lat="42.34152" lon="-71.09724"/>
   <trkpt lat="42.3416" lon="-71.0971"/>
   <trkpt lat="42.34179" lon="-71.0964"/>
   <trkpt lat="42.34204" lon="-71.0955"/>
   <trkpt lat="42.34217" lon="-71.09522"/>
   <trkpt lat="42.34228" lon="-71.09505"/>
   <trkpt lat="42.34245" lon="-71.09484"/>
   <trkpt lat="42.3426" lon="-71.09471"/>
   <trkpt lat="42.34277" lon="-71.09458"/>
   <trkpt lat="42.3429" lon="-71.09451"/>
   <trkpt lat="42.34299" lon="-71.0945"/>
   <trkpt lat="42.34311" lon="-71.09449"/>
   <trkpt lat="42.3432" lon="-71.09445"/>
   <trkpt lat="42.34324" lon="-71.09442"/>
   <trkpt lat="42.34345" lon="-71.09447"/>
   <trkpt lat="42.34356" lon="-71.09451"/>
   <trkpt lat="42.34388" lon="-71.09459"/>
   <trkpt lat="42.34399" lon="-71.09459"/>
   <trkpt lat="42.34436" lon="-71.09459"/>
   <trkpt lat="42.34478" lon="-71.0945"/>
   <trkpt lat="42.34524" lon="-71.09433"/>
   <trkpt lat="42.34535" lon="-71.09429"/>
   <trkpt lat="42.34543" lon="-71.09423"/>
   <trkpt lat="42.3456" lon="-71.09411"/>
   <trkpt lat="42.34579" lon="-71.09392"/>
   <trkpt lat="42.34631" lon="-71.09334"/>
   <trkpt lat="42.34648" lon="-71.09316"/>
   <trkpt lat="42.34655" lon="-71.09304"/>
   <trkpt lat="42.34655" lon="-71.09304"/>
   <trkpt lat="42.34665" lon="-71.09266"/>
   <trkpt lat="42.34666" lon="-71.09232"/>
   <trkpt lat="42.34662" lon="-71.09201"/>
   <trkpt lat="42.34653" lon="-71.0917"/>
   <trkpt lat="42.34641" lon="-71.0913"/>
   <trkpt lat="42.34637" lon="-71.09114"/>
   <trkpt lat="42.34634" lon="-71.09107"/>
   <trkpt lat="42.3463" lon="-71.091"/>
   <trkpt lat="42.34622" lon="-71.09094"/>
   <trkpt lat="42.34584" lon="-71.09081"/>
   <trkpt lat="42.34556" lon="-71.09075"/>
   <trkpt lat="42.3454" lon="-71.09075"/>
   <trkpt lat="42.34521" lon="-71.09079"/>
   <trkpt lat="42.34477" lon="-71.0909"/>
   <trkpt lat="42.34468" lon="-71.0909"/>
   <trkpt lat="42.34446" lon="-71.09088"/>
   <trkpt lat="42.34446" lon="-71.09088"/>
   <trkpt lat="42.34424" lon="-71.09087"/>
   <trkpt lat="42.34421" lon="-71.09087"/>
   <trkpt lat="42.3442" lon="-71.09085"/>
   <trkpt lat="42.34406" lon="-71.09094"/>
   <trkpt lat="42.34395" lon="-71.09098"/>
   <trkpt lat="42.34375" lon="-71.0911"/>
   <trkpt lat="42.3435" lon="-71.09129"/>
   <trkpt lat="42.34336" lon="-71.0914"/>
   <trkpt lat="42.34329" lon="-71.09143"/>
   <trkpt lat="42.34329" lon="-71.09147"/>
   <trkpt lat="42.34326" lon="-71.09147"/>
   <trkpt lat="42.34324" lon="-71.09148"/>
   <trkpt lat="42.34297" lon="-71.09159"/>
   <trkpt lat="42.34286" lon="-71.09164"/>
   <trkpt lat="42.34254" lon="-71.09164"/>
   <trkpt lat="42.34235" lon="-71.09167"/>
   <trkpt lat="42.34216" lon="-71.09173"/>
   <trkpt lat="42.34163" lon="-71.09209"/>
   <trkpt lat="42.34144" lon="-71.09228"/>
   <trkpt lat="42.34132" lon="-71.09246"/>
   <trkpt lat="42.34117" lon="-71.09281"/>
   <trkpt lat="42.34091" lon="-71.0938"/>
   <trkpt lat="42.34068" lon="-71.0945"/>
   <trkpt lat="42.34052" lon="-71.09494"/>
   <trkpt lat="42.34044" lon="-71.09512"/>
   <trkpt lat="42.34029" lon="-71.09555"/>
   <trkpt lat="42.34022" lon="-71.09576"/>
   <trkpt lat="42.34012" lon="-71.09594"/>
   <trkpt lat="42.34003" lon="-71.09609"/>
   <trkpt lat="42.33995" lon="-71.09617"/>
   <trkpt lat="42.33977" lon="-71.09639"/>
   <trkpt lat="42.33961" lon="-71.09657"/>
   <trkpt lat="42.33932" lon="-71.09681"/>
   <trkpt lat="42.33907" lon="-71.09702"/>
   <trkpt lat="42.33894" lon="-71.0972"/>
   <trkpt lat="42.33886" lon="-71.0974"/>
   <trkpt lat="42.33881" lon="-71.09765"/>
   <trkpt lat="42.33874" lon="-71.09757"/>
   <trkpt lat="42.33874" lon="-71.09757"/>
   <trkpt lat="42.33881" lon="-71.09765"/>
   <trkpt lat="42.33881" lon="-71.09781"/>
   <trkpt lat="42.33884" lon="-71.09806"/>
   <trkpt lat="42.33888" lon="-71.09822"/>
   <trkpt lat="42.33905" lon="-71.09863"/>
   <trkpt lat="42.33935" lon="-71.0992"/>
   <trkpt lat="42.3396" lon="-71.09961"/>
   <trkpt lat="42.33944" lon="-71.09977"/>
   <trkpt lat="42.33965" lon="-71.10006"/>
   <trkpt lat="42.33987" lon="-71.10035"/>
   <trkpt lat="42.33996" lon="-71.10046"/>
   <trkpt lat="42.3401" lon="-71.10057"/>
   <trkpt lat="42.34023" lon="-71.10074"/>
   <trkpt lat="42.3402" lon="-71.10087"/>
   <trkpt lat="42.34012" lon="-71.10094"/>
   <trkpt lat="42.34003" lon="-71.10101"/>
   <trkpt lat="42.34003" lon="-71.10101"/>
   <trkpt lat="42.33987" lon="-71.10112"/>
   <trkpt lat="42.3397" lon="-71.1012"/>
   <trkpt lat="42.33939" lon="-71.10141"/>
   <trkpt lat="42.33917" lon="-71.10157"/>
   <trkpt lat="42.33886" lon="-71.10178"/>
   <trkpt lat="42.33822" lon="-71.10224"/>
   <trkpt lat="42.33786" lon="-71.10249"/>
   <trkpt lat="42.33781" lon="-71.10255"/>
   <trkpt lat="42.33767" lon="-71.10265"/>
   <trkpt lat="42.33729" lon="-71.10292"/>
   <trkpt lat="42.33725" lon="-71.10288"/>
   <trkpt lat="42.33715" lon="-71.10286"/>
   <trkpt lat="42.33701" lon="-71.10292"/>
  </trkseg>
 </trk>
</gpx>
