<?xml version="1.0" encoding="UTF-8"?>
<gpx version="1.1" creator="mystic-mile-run-club" xmlns="http://www.topografix.com/GPX/1/1">
  <trk>
    <name>Riverside Easy Loop</name>
    <trkseg>
      <trkpt lat="42.3565" lon="-71.0785"><ele>3</ele></trkpt>
      <trkpt lat="42.3572" lon="-71.0755"><ele>4</ele></trkpt>
      <trkpt lat="42.3580" lon="-71.0720"><ele>5</ele></trkpt>
      <trkpt lat="42.3588" lon="-71.0680"><ele>6</ele></trkpt>
      <trkpt lat="42.3594" lon="-71.0645"><ele>5</ele></trkpt>
      <trkpt lat="42.3600" lon="-71.0610"><ele>4</ele></trkpt>
      <trkpt lat="42.3592" lon="-71.0600"><ele>4</ele></trkpt>
      <trkpt lat="42.3582" lon="-71.0630"><ele>5</ele></trkpt>
      <trkpt lat="42.3574" lon="-71.0665"><ele>6</ele></trkpt>
      <trkpt lat="42.3566" lon="-71.0705"><ele>5</ele></trkpt>
      <trkpt lat="42.3560" lon="-71.0745"><ele>4</ele></trkpt>
      <trkpt lat="42.3565" lon="-71.0785"><ele>3</ele></trkpt>
    </trkseg>
  </trk>
</gpx>
